{"type":"FeatureCollection","features":[{"type":"Feature","properties":{"name":"not rendered"},"geometry":{"type":"Point","coordinates":[-105,39.7]}},{"type":"Feature","properties":{},"geometry":{"type":"LineString","coordinates":[[-105.2,39.6],[-105.1,39.65],[-104.95,39.68]]}},{"type":"Feature","properties":{},"geometry":{"type":"Polygon","coordinates":[[[-105.4,39.5],[-104.8,39.5],[-104.8,39.9],[-105.4,39.9],[-105.4,39.5]],[[-105.2,39.6],[-105.0,39.6],[-105.0,39.72],[-105.2,39.72],[-105.2,39.6]]]}},{"type":"Feature","properties":{},"geometry":{"type":"GeometryCollection","geometries":[{"type":"MultiPoint","coordinates":[[-104.9,39.74],[-104.85,39.76]]},{"type":"MultiLineString","coordinates":[[[-105.3,39.55],[-105.25,39.58]]]}]}}]}
